OBJECT_NAME,OBJECT_ID,EPOCH,MEAN_MOTION,ECCENTRICITY,INCLINATION,RA_OF_ASC_NODE,ARG_OF_PERICENTER,MEAN_ANOMALY,EPHEMERIS_TYPE,CLASSIFICATION_TYPE,NORAD_CAT_ID,ELEMENT_SET_NO,REV_AT_EPOCH,BSTAR,MEAN_MOTION_DOT,MEAN_MOTION_DDOT
STARLINK-1274,2020-019AD,2026-07-11T12:26:22.149024,15.68668940,.00060457,53.0161,221.8040,325.3294,34.7327,0,U,45387,999,34991,.6376719E-3,.74158E-3,0
STARLINK-1280,2020-019AE,2026-07-11T09:34:24.788064,15.91657318,.00075988,53.0301,225.5051,22.5189,337.6169,0,U,45388,999,34984,.45175959E-3,.147873E-2,.1923877E-4
STARLINK-1283,2020-019AF,2026-07-10T16:32:53.022912,15.76045805,.00042287,53.0346,223.7394,359.2854,0.8158,0,U,45389,999,34982,.3590505E-3,.56783E-3,0
STARLINK-1284,2020-019AG,2026-07-11T02:59:57.960096,15.74127227,.00039741,53.0386,245.8934,59.8163,300.3249,0,U,45390,999,34954,.34228143E-3,.49682E-3,0
STARLINK-1297,2020-019AM,2026-07-11T22:32:17.612736,15.77308576,.00036981,53.0395,240.5798,25.9655,334.1550,0,U,45395,999,34887,.31835105E-3,.53157E-3,0
STARLINK-1307,2020-019AP,2026-07-11T11:53:38.636448,15.58991917,.00018839,53.0506,252.5149,1.7471,358.3547,0,U,45397,999,34931,.25894288E-3,.20056E-3,0
STARLINK-1255,2020-019AR,2026-07-09T11:35:14.897184,15.68808056,.00011355,53.0312,227.9029,323.9181,36.1758,0,U,45399,999,34946,.32762586E-3,.37837E-3,0
STARLINK-1260,2020-019AW,2026-07-11T12:22:29.336448,15.41103543,.00014091,53.1536,269.5929,285.5790,74.5060,0,U,45404,999,34899,.79137938E-3,.32983E-3,0
STARLINK-1263,2020-019AX,2026-07-11T11:39:28.332576,15.38144607,.00027062,53.1573,271.7082,301.6334,58.4405,0,U,45405,999,34896,.64638258E-3,.24323E-3,0
STARLINK-1265,2020-019AY,2026-07-11T11:59:25.573056,15.41604168,.00023094,53.1535,269.5691,343.2608,16.8321,0,U,45406,999,34899,.94594101E-3,.40211E-3,0
STARLINK-1278,2020-019BA,2026-07-10T14:42:29.991168,15.78338508,.00021951,53.0363,245.8786,33.4113,326.7045,0,U,45408,999,34922,.30342491E-3,.53028E-3,0
STARLINK-1296,2020-019BE,2026-07-11T12:50:37.596768,15.41716666,.0001376,53.1541,269.0457,326.3931,33.6987,0,U,45412,999,34900,.78329973E-3,.33322E-3,0
STARLINK-1309,2020-019BG,2026-07-11T14:40:43.390848,15.76688727,.00032646,53.0559,235.2353,35.8511,324.2727,0,U,45414,999,34944,.28672357E-3,.46459E-3,0
STARLINK-1316,2020-019BH,2026-07-11T16:36:29.046240,15.42073894,.00011395,53.1529,268.1606,276.6052,83.4824,0,U,45415,999,34905,.83026985E-3,.35783E-3,0
STARLINK-1286,2020-019BK,2026-07-11T04:17:51.146880,15.68121696,.00064108,53.0431,250.4879,8.9916,351.1213,0,U,45417,999,34948,.38855136E-3,.43793E-3,0
STARLINK-1308,2020-019BM,2026-07-11T11:51:36.457344,15.69155651,.0003832,53.0450,267.9967,117.3986,242.7421,0,U,45419,999,34901,.2948945E-3,.34489E-3,0
ONEWEB-0066,2020-020A,2026-07-11T22:38:07.361664,13.11422735,.0001677,87.8880,16.1406,92.7252,267.4068,0,U,45424,999,30592,.2935074E-3,.117E-5,0
ONEWEB-0067,2020-020B,2026-07-11T14:23:07.719360,13.11423295,.00017608,87.8902,16.1360,84.5699,275.5630,0,U,45425,999,30593,-.49467988E-3,-.163E-5,0
ONEWEB-0080,2020-020C,2026-07-11T14:22:42.907008,13.11414512,.00020245,87.8893,16.2087,97.6534,262.4824,0,U,45426,999,30590,-.29266541E-3,-.91E-6,0
ONEWEB-0090,2020-020D,2026-07-11T13:14:20.616000,13.11418580,.00018785,87.8898,16.2225,91.4136,268.7207,0,U,45427,999,30586,-.7252609E-3,-.244E-5,0
ONEWEB-0061,2020-020E,2026-07-11T14:00:20.668320,13.11415885,.00018204,87.8883,16.2002,89.3795,270.7542,0,U,45428,999,30582,.15919004E-2,.577E-5,0
ONEWEB-0081,2020-020F,2026-07-11T20:53:09.319200,13.11418006,.00016258,87.8887,16.1522,87.5695,272.5619,0,U,45429,999,30597,.68785994E-3,.256E-5,0
ONEWEB-0069,2020-020G,2026-07-11T22:45:39.953376,13.11420448,.00016235,87.8888,16.1398,91.0282,269.1032,0,U,45430,999,30591,.84033539E-3,.311E-5,0
ONEWEB-0031,2020-020H,2026-07-11T12:37:32.780640,13.11415963,.00019162,87.8875,16.2266,95.1080,265.0267,0,U,45431,999,30584,-.56395284E-3,-.187E-5,0
ONEWEB-0027,2020-020J,2026-07-11T22:34:01.086240,13.17634497,.00027793,87.9154,0.9394,92.7865,267.3584,0,U,45432,999,30961,.30533752E-2,.1198E-4,0
ONEWEB-0064,2020-020K,2026-07-11T21:44:24.872352,13.11414196,.00020318,87.8873,16.1435,92.8821,267.2540,0,U,45433,999,30592,-.63553303E-3,-.213E-5,0
ONEWEB-0018,2020-020L,2026-07-11T13:21:15.879456,13.11418378,.00015723,87.8891,16.2147,100.6115,259.5190,0,U,45434,999,30582,-.10750859E-3,-.25E-6,0
ONEWEB-0083,2020-020M,2026-07-11T13:07:00.900480,13.11418440,.00018751,87.8895,16.2110,92.9888,267.1455,0,U,45435,999,30586,-.1073052E-2,-.368E-5,0
ONEWEB-0095,2020-020N,2026-07-11T22:04:08.299200,13.11415865,.00023876,87.8882,16.1434,79.6250,280.5147,0,U,45436,999,30591,-.14357014E-2,-.496E-5,0
ONEWEB-0092,2020-020P,2026-07-11T22:48:06.444576,13.11415849,.00016619,87.8891,16.1301,95.1058,265.0260,0,U,45437,999,30603,.11260334E-2,.412E-5,0
ONEWEB-0085,2020-020Q,2026-07-11T22:15:57.167136,13.11418049,.00018061,87.8880,16.1396,89.9681,270.1654,0,U,45438,999,30591,-.1197914E-2,-.412E-5,0
ONEWEB-0096,2020-020R,2026-07-11T13:09:15.150528,13.11417741,.00019679,87.8884,16.2124,87.5707,272.5647,0,U,45439,999,30585,-.98247189E-3,-.336E-5,0
ONEWEB-0037,2020-020S,2026-07-11T13:47:05.595648,13.11416151,.00019842,87.8898,16.1803,87.2335,272.9020,0,U,45440,999,30589,.15032367E-2,.545E-5,0
ONEWEB-0042,2020-020T,2026-07-11T12:54:24.682752,13.11416942,.00017675,87.8888,16.2113,87.2756,272.8574,0,U,45441,999,30585,-.1277393E-2,-.44E-5,0
ONEWEB-0098,2020-020U,2026-07-11T12:48:29.446560,13.11414589,.0001879,87.8885,16.2211,91.5821,268.5522,0,U,45442,999,30583,-.14258215E-2,-.493E-5,0
ONEWEB-0055,2020-020V,2026-07-11T14:07:40.493568,13.11415192,.00018926,87.8883,16.2088,92.8450,267.2895,0,U,45443,999,30581,.10081517E-2,.37E-5,0
ONEWEB-0093,2020-020W,2026-07-11T13:46:48.396000,13.10893340,.00015564,87.8884,16.2071,86.7091,273.4215,0,U,45444,999,30587,.18304544E-2,.657E-5,0
ONEWEB-0029,2020-020X,2026-07-11T14:17:50.026560,13.11413675,.00015964,87.8881,16.2081,89.9408,270.1903,0,U,45445,999,30585,.13958678E-4,.18E-6,0
ONEWEB-0068,2020-020Y,2026-07-11T22:47:42.967968,13.11418167,.00016214,87.8890,16.1341,90.1833,269.9481,0,U,45446,999,30584,.10420539E-2,.382E-5,0
ONEWEB-0046,2020-020Z,2026-07-11T22:35:41.202240,13.11419311,.00016826,87.8882,16.1397,81.8437,278.2882,0,U,45447,999,30585,.75897488E-4,.4E-6,0
ONEWEB-0063,2020-020AA,2026-07-11T12:18:11.997504,13.11414677,.00019454,87.8872,16.2260,80.3473,279.7875,0,U,45448,999,30588,.1179461E-2,.431E-5,0
ONEWEB-0019,2020-020AB,2026-07-11T13:13:55.694784,13.11409568,.00019298,87.8900,16.2059,95.7841,264.3507,0,U,45449,999,30573,-.64169254E-3,-.215E-5,0
ONEWEB-0094,2020-020AC,2026-07-11T21:10:22.633824,13.17648875,.000176,87.9150,0.9380,98.3286,261.8046,0,U,45450,999,30956,.89645656E-4,.48E-6,0
ONEWEB-0087,2020-020AD,2026-07-11T12:32:26.451168,13.11414736,.00015044,87.8898,16.2007,91.7372,268.3929,0,U,45451,999,30577,-.51732062E-3,-.171E-5,0
ONEWEB-0082,2020-020AE,2026-07-11T14:17:25.830240,13.11415014,.00013741,87.8889,16.2005,83.9227,276.2058,0,U,45452,999,30587,.96219479E-4,.47E-6,0
ONEWEB-0050,2020-020AF,2026-07-11T13:57:29.309472,14.90465905,.00014524,88.9282,229.8969,188.9123,171.2080,0,U,45453,999,34401,.10885213E-3,.1083E-4,0
ONEWEB-0034,2020-020AG,2026-07-11T22:31:02.004096,13.11412881,.00017665,87.8883,16.1416,87.5915,272.5415,0,U,45454,999,30583,.26418882E-2,.949E-5,0
ONEWEB-0060,2020-020AH,2026-07-11T14:06:39.108960,13.11415218,.00010156,87.8880,16.2074,116.5172,243.6060,0,U,45455,999,30574,.99765673E-3,.366E-5,0
ONEWEB-0086,2020-020AJ,2026-07-11T22:45:16.100928,13.11418938,.0001707,87.8891,16.1329,115.1501,244.9804,0,U,45456,999,30585,.80058331E-3,.296E-5,0
ONEWEB-0088,2020-020AK,2026-07-11T22:13:41.996928,13.11417322,.00017887,87.8898,16.1117,76.0797,284.0529,0,U,45457,999,30578,-.14081542E-2,-.486E-5,0
YAOGAN-30 07A,2020-021A,2026-07-11T22:42:42.028128,15.02736062,.00047479,34.9952,59.9573,253.0239,106.9949,0,U,45460,999,34428,.11916377E-3,.1596E-4,0
YAOGAN-30 07B,2020-021B,2026-07-11T22:10:39.139968,15.02785493,.00016006,34.9946,59.6974,62.3951,297.6919,0,U,45461,999,34421,.11273261E-3,.1509E-4,0
YAOGAN-30 07C,2020-021C,2026-07-11T23:14:04.998624,15.02791494,.00019313,34.9961,57.4862,264.6151,95.4337,0,U,45462,999,34414,.11812153E-3,.1583E-4,0
AEHF-6 (USA 298),2020-022B,2026-07-11T21:03:33.539328,1.00272445,.00420753,2.4958,301.4532,15.3891,66.5875,0,U,45465,999,2326,0,-.29E-5,0
STARLINK-1329,2020-025A,2026-07-11T08:58:29.316288,15.78110355,.00038174,53.0375,190.2696,19.1240,340.9923,0,U,45531,999,34487,.32099041E-3,.55591E-3,0
STARLINK-1338,2020-025B,2026-07-11T11:35:01.953600,15.74853266,.00030199,53.0397,197.3530,64.7345,295.3986,0,U,45532,999,34478,.29247223E-3,.43689E-3,0
STARLINK-1350,2020-025E,2026-07-11T22:23:44.445984,15.40083072,.00016196,53.0696,168.2463,68.3574,291.7602,0,U,45535,999,34527,.73884482E-3,.29725E-3,0
STARLINK-1362,2020-025H,2026-07-11T13:44:45.335616,15.40327721,.00060449,53.1537,241.4648,353.4683,6.6242,0,U,45538,999,34420,-.14262268E-2,-.58397E-3,0
STARLINK-1368,2020-025K,2026-07-11T17:05:16.493280,15.40649914,.00037612,53.1546,241.1320,341.8670,18.2201,0,U,45540,999,34421,.69594983E-3,.28507E-3,0
STARLINK-1371,2020-025M,2026-07-11T02:07:46.198560,15.71712536,.00044285,53.0371,209.8986,87.2903,272.8621,0,U,45542,999,34457,-.97536488E-4,-.13451E-3,0
STARLINK-1372,2020-025N,2026-07-10T18:04:08.588352,15.41038348,.00040728,53.1549,245.0515,329.2584,30.8182,0,U,45543,999,34317,.88085786E-3,.36702E-3,0
STARLINK-1373,2020-025P,2026-07-10T10:06:38.332800,15.73445504,.00024854,53.0427,207.8756,24.5125,335.6010,0,U,45544,999,34454,.2719217E-3,.38128E-3,0
STARLINK-1327,2020-025AA,2026-07-10T00:27:55.012608,15.75365665,.00025384,53.0378,187.0248,72.7600,287.3696,0,U,45555,999,34479,.38597104E-3,.59283E-3,0
STARLINK-1356,2020-025AK,2026-07-11T11:35:41.928288,15.68110796,.00045809,53.0394,194.1616,42.9515,317.1857,0,U,45564,999,34482,.28853451E-3,.32294E-3,0
